OBJECT_NAME,OBJECT_ID,EPOCH,MEAN_MOTION,ECCENTRICITY,INCLINATION,RA_OF_ASC_NODE,ARG_OF_PERICENTER,MEAN_ANOMALY,EPHEMERIS_TYPE,CLASSIFICATION_TYPE,NORAD_CAT_ID,ELEMENT_SET_NO,REV_AT_EPOCH,BSTAR,MEAN_MOTION_DOT,MEAN_MOTION_DDOT
COSMOS 2251 DEB,1993-036AZG,2024-12-31T09:09:16.377984,14.35221638,0.0045837,74.011,223.2834,74.9335,98.6639,0,U,36379,999,59857,7.10E-04,2.03E-05,0
COSMOS 2251 DEB,1993-036AZM,2024-12-30T02:25:11.655840,15.71314491,0.0020616,73.9772,297.697,161.4312,198.7669,0,U,36384,999,82041,1.97E-02,2.94E-02,0
COSMOS 2251 DEB,1993-036AZN,2024-12-31T13:13:46.015392,14.61622892,0.0169074,73.9774,105.8916,2.5385,357.6597,0,U,36385,999,80377,3.25E-03,1.99E-04,0
COSMOS 2251 DEB,1993-036AZT,2024-12-31T07:08:19.572864,14.36427327,0.0018241,74.0354,192.139,5.473,168.2667,0,U,36420,999,80061,4.18E-04,1.20E-05,0
COSMOS 2251 DEB,1993-036AZX,2024-12-31T16:05:21.667488,14.75593701,0.0069692,74.1654,92.1732,351.7207,8.2811,0,U,36424,999,78968,1.42E-02,1.03E-03,0
COSMOS 2251 DEB,1993-036BAD,2024-12-29T09:37:53.194368,14.2670847,0.0100737,74.0041,20.3153,251.2607,107.7589,0,U,36430,999,59587,1.11E-03,2.80E-05,0
COSMOS 2251 DEB,1993-036BAL,2024-12-29T16:04:23.917728,14.62526752,0.0029031,73.9348,349.3703,294.638,65.1763,0,U,36437,999,60947,4.08E-03,2.08E-04,0
COSMOS 2251 DEB,1993-036BAN,2024-12-30T08:31:38.273376,13.4645959,0.0432366,73.9723,230.636,270.9372,84.2235,0,U,36439,999,53934,3.96E-03,4.19E-05,0
COSMOS 2251 DEB,1993-036BAQ,2024-12-31T05:29:20.576832,14.99363829,0.012456,73.8376,346.1997,160.2641,200.343,0,U,36441,999,81759,9.78E-04,1.41E-04,0
COSMOS 2251 DEB,1993-036BBA,2024-12-25T00:32:33.081504,14.16299763,0.0191099,73.9534,247.1769,147.0185,214.3053,0,U,36451,999,79227,1.73E-03,4.08E-05,0
COSMOS 2251 DEB,1993-036BBC,2024-12-30T16:23:19.569696,14.48682932,0.0073939,73.9277,89.5474,67.8179,85.623,0,U,36453,999,79434,2.77E-03,1.08E-04,0
COSMOS 2251 DEB,1993-036BBJ,2024-12-27T02:32:33.696384,14.22423549,0.0122683,74.0479,271.281,93.3968,268.122,0,U,36459,999,2889,2.21E-03,5.30E-05,0
COSMOS 2251 DEB,1993-036BBV,2024-12-30T09:25:59.566656,14.79526196,0.0042258,73.8556,239.6906,138.2338,222.2076,0,U,36470,999,60913,5.00E-03,3.81E-04,0
COSMOS 2251 DEB,1993-036BCN,2024-12-26T12:48:21.360384,14.28585903,0.0085828,74.0242,64.1569,198.6651,161.1346,0,U,36528,999,79131,2.04E-03,5.32E-05,0
COSMOS 2251 DEB,1993-036BCT,2024-12-31T19:50:33.468864,14.48126496,0.0051944,74.0131,44.3787,277.354,82.1717,0,U,36533,999,79474,1.45E-03,5.48E-05,0
COSMOS 2251 DEB,1993-036BCZ,2024-12-31T06:05:07.273824,14.56005079,0.0030893,74.0253,354.5229,227.242,132.6144,0,U,36539,999,78898,2.14E-03,9.45E-05,0
COSMOS 2251 DEB,1993-036BDA,2024-12-31T13:42:43.229952,14.5347936,0.0017861,74.0332,117.338,280.1628,79.7519,0,U,36540,999,81176,3.80E-03,1.59E-04,0
COSMOS 2251 DEB,1993-036BDL,2024-12-30T23:36:24.236640,14.25619368,0.0080702,74.0453,99.2495,235.3024,124.0502,0,U,36550,999,79651,2.51E-03,6.13E-05,0
COSMOS 2251 DEB,1993-036BDM,2024-12-31T17:03:41.833440,14.87077266,0.0065481,73.8913,359.3663,20.9253,339.4582,0,U,36551,999,61759,3.91E-03,3.67E-04,0
COSMOS 2251 DEB,1993-036BDT,2024-12-31T11:36:16.946208,14.6490104,0.0033917,73.9723,81.8877,311.3501,48.475,0,U,36557,999,79819,6.47E-03,3.51E-04,0
COSMOS 2251 DEB,1993-036BDU,2024-12-31T12:28:47.418528,14.51945127,0.0015427,74.0466,88.3926,269.2153,90.7241,0,U,36558,999,80460,2.72E-03,1.10E-04,0
COSMOS 2251 DEB,1993-036BEC,2024-12-30T23:46:27.945408,14.54636938,0.0019726,74.0256,114.3189,278.8988,80.9942,0,U,36614,999,81208,3.89E-03,1.67E-04,0
COSMOS 2251 DEB,1993-036BEL,2024-12-31T14:32:19.396320,14.7188857,0.0075524,74.0147,101.9933,324.4592,35.1561,0,U,36622,999,79058,1.79E-03,1.17E-04,0
COSMOS 2251 DEB,1993-036BEP,2024-12-30T16:35:08.562912,15.90706528,0.0012033,73.8288,252.1161,163.6933,196.469,0,U,36625,999,4031,1.08E-02,3.04E-02,7.75E-03
COSMOS 2251 DEB,1993-036BEQ,2024-12-27T06:57:01.548864,15.48650326,0.0054041,74.0035,206.9219,322.4217,37.3223,0,U,36626,999,82406,1.41E-03,8.06E-04,0
COSMOS 2251 DEB,1993-036BEW,2024-12-31T20:13:10.874208,14.40741268,0.0034375,74.003,214.9944,47.4783,312.9266,0,U,36632,999,60229,2.02E-03,6.47E-05,0
COSMOS 2251 DEB,1993-036BFE,2024-12-31T02:29:15.201024,14.94596092,0.0110443,74.0287,144.1063,316.6076,42.645,0,U,37084,999,61077,1.08E-03,1.32E-04,0
COSMOS 2251 DEB,1993-036BFF,2024-12-31T20:53:18.208896,15.05365509,0.0054492,73.9692,224.9374,139.721,220.8036,0,U,37085,999,61881,3.08E-03,4.58E-04,0
COSMOS 2251 DEB,1993-036BFK,2024-12-31T13:41:19.451328,14.44016941,0.0158673,74.042,74.5155,262.4781,95.8327,0,U,37089,999,78595,7.34E-03,2.94E-04,0
COSMOS 2251 DEB,1993-036BFQ,2024-12-31T19:15:43.458048,14.35167727,0.0085006,74.1122,34.1337,90.7942,270.2951,0,U,37094,999,79538,2.29E-03,6.79E-05,0
