COSMOS 2251 DEB         
1 36379U 93036AZG 24366.38143956  .00002031  00000+0  71025-3 0  9992
2 36379  74.0110 223.2834 0045837  74.9335  98.6639 14.35221638598575
COSMOS 2251 DEB         
1 36384U 93036AZM 24365.10082935  .02940977  00000+0  19702-1 0  9990
2 36384  73.9772 297.6970 0020616 161.4312 198.7669 15.71314491820411
COSMOS 2251 DEB         
1 36385U 93036AZN 24366.55122703  .00019861  00000+0  32524-2 0  9994
2 36385  73.9774 105.8916 0169074   2.5385 357.6597 14.61622892803772
COSMOS 2251 DEB         
1 36420U 93036AZT 24366.29744876  .00001200  00000+0  41769-3 0  9996
2 36420  74.0354 192.1390 0018241   5.4730 168.2667 14.36427327800610
COSMOS 2251 DEB         
1 36424U 93036AZX 24366.67038967  .00102525  00000+0  14247-1 0  9990
2 36424  74.1654  92.1732 0069692 351.7207   8.2811 14.75593701789689
COSMOS 2251 DEB         
1 36430U 93036BAD 24364.40131012  .00002799  00000+0  11067-2 0  9991
2 36430  74.0041  20.3153 0100737 251.2607 107.7589 14.26708470595879
COSMOS 2251 DEB         
1 36437U 93036BAL 24364.66972127  .00020845  00000+0  40778-2 0  9999
2 36437  73.9348 349.3703 0029031 294.6380  65.1763 14.62526752609479
COSMOS 2251 DEB         
1 36439U 93036BAN 24365.35530409  .00004190  00000+0  39627-2 0  9997
2 36439  73.9723 230.6360 0432366 270.9372  84.2235 13.46459590539346
COSMOS 2251 DEB         
1 36441U 93036BAQ 24366.22871038  .00014066  00000+0  97778-3 0  9998
2 36441  73.8376 346.1997 0124560 160.2641 200.3430 14.99363829817597
COSMOS 2251 DEB         
1 36451U 93036BBA 24360.02260511  .00004081  00000+0  17318-2 0  9996
2 36451  73.9534 247.1769 0191099 147.0185 214.3053 14.16299763792276
COSMOS 2251 DEB         
1 36453U 93036BBC 24365.68286539  .00010784  00000+0  27680-2 0  9993
2 36453  73.9277  89.5474 0073939  67.8179  85.6230 14.48682932794342
COSMOS 2251 DEB         
1 36459U 93036BBJ 24362.10594556  .00005300  00000+0  22116-2 0  9991
2 36459  74.0479 271.2810 0122683  93.3968 268.1220 14.22423549 28895
COSMOS 2251 DEB         
1 36470U 93036BBV 24365.39305054  .00038138  00000+0  49981-2 0  9995
2 36470  73.8556 239.6906 0042258 138.2338 222.2076 14.79526196609130
COSMOS 2251 DEB         
1 36528U 93036BCN 24361.53358056  .00005316  00000+0  20449-2 0  9991
2 36528  74.0242  64.1569 0085828 198.6651 161.1346 14.28585903791311
COSMOS 2251 DEB         
1 36533U 93036BCT 24366.82677626  .00005477  00000+0  14525-2 0  9997
2 36533  74.0131  44.3787 0051944 277.3540  82.1717 14.48126496794744
COSMOS 2251 DEB         
1 36539U 93036BCZ 24366.25355641  .00009445  00000+0  21361-2 0  9995
2 36539  74.0253 354.5229 0030893 227.2420 132.6144 14.56005079788989
COSMOS 2251 DEB         
1 36540U 93036BDA 24366.57133368  .00015901  00000+0  38039-2 0  9996
2 36540  74.0332 117.3380 0017861 280.1628  79.7519 14.53479360811765
COSMOS 2251 DEB         
1 36550U 93036BDL 24365.98361385  .00006134  00000+0  25114-2 0  9991
2 36550  74.0453  99.2495 0080702 235.3024 124.0502 14.25619368796515
COSMOS 2251 DEB         
1 36551U 93036BDM 24366.71090085  .00036658  00000+0  39113-2 0  9998
2 36551  73.8913 359.3663 0065481  20.9253 339.4582 14.87077266617593
COSMOS 2251 DEB         
1 36557U 93036BDT 24366.48352947  .00035065  00000+0  64749-2 0  9990
2 36557  73.9723  81.8877 0033917 311.3501  48.4750 14.64901040798196
COSMOS 2251 DEB         
1 36558U 93036BDU 24366.51999327  .00010968  00000+0  27164-2 0  9999
2 36558  74.0466  88.3926 0015427 269.2153  90.7241 14.51945127804609
COSMOS 2251 DEB         
1 36614U 93036BEC 24365.99060122  .00016661  00000+0  38856-2 0  9991
2 36614  74.0256 114.3189 0019726 278.8988  80.9942 14.54636938812088
COSMOS 2251 DEB         
1 36622U 93036BEL 24366.60578005  .00011735  00000+0  17942-2 0  9993
2 36622  74.0147 101.9933 0075524 324.4592  35.1561 14.71888570790581
COSMOS 2251 DEB         
1 36625U 93036BEP 24365.69107133  .03038912  77509-2  10778-1 0  9993
2 36625  73.8288 252.1161 0012033 163.6933 196.4690 15.90706528 40314
COSMOS 2251 DEB         
1 36626U 93036BEQ 24362.28960126  .00080558  00000+0  14073-2 0  9997
2 36626  74.0035 206.9219 0054041 322.4217  37.3223 15.48650326824068
COSMOS 2251 DEB         
1 36632U 93036BEW 24366.84248697  .00006472  00000+0  20162-2 0  9991
2 36632  74.0030 214.9944 0034375  47.4783 312.9266 14.40741268602299
COSMOS 2251 DEB         
1 37084U 93036BFE 24366.10364816  .00013222  00000+0  10832-2 0  9998
2 37084  74.0287 144.1063 0110443 316.6076  42.6450 14.94596092610774
COSMOS 2251 DEB         
1 37085U 93036BFF 24366.87034964  .00045843  00000+0  30771-2 0  9999
2 37085  73.9692 224.9374 0054492 139.7210 220.8036 15.05365509618813
COSMOS 2251 DEB         
1 37089U 93036BFK 24366.57036402  .00029363  00000+0  73421-2 0  9997
2 37089  74.0420  74.5155 0158673 262.4781  95.8327 14.44016941785955
COSMOS 2251 DEB         
1 37094U 93036BFQ 24366.80258632  .00006788  00000+0  22864-2 0  9991
2 37094  74.1122  34.1337 0085006  90.7942 270.2951 14.35167727795384
